[{"OBJECT_NAME":"JILIN-1 GAOFEN 03D47","OBJECT_ID":"2022-167L","EPOCH":"2026-03-09T22:56:46.924224","MEAN_MOTION":15.31686941,"ECCENTRICITY":0.00089304,"INCLINATION":97.6835,"RA_OF_ASC_NODE":234.6581,"ARG_OF_PERICENTER":110.4031,"MEAN_ANOMALY":249.8169,"EPHEMERIS_TYPE":0,"CLASSIFICATION_TYPE":"U","NORAD_CAT_ID":54692,"ELEMENT_SET_NO":999,"REV_AT_EPOCH":18014,"BSTAR":0.00047294748,"MEAN_MOTION_DOT":0.00014417,"MEAN_MOTION_DDOT":0},{"OBJECT_NAME":"STARLINK-32285","OBJECT_ID":"2024-138A","EPOCH":"2026-03-09T21:27:37.995264","MEAN_MOTION":15.30218306,"ECCENTRICITY":7.239e-5,"INCLINATION":53.1598,"RA_OF_ASC_NODE":308.3223,"ARG_OF_PERICENTER":85.7035,"MEAN_ANOMALY":274.4049,"EPHEMERIS_TYPE":0,"CLASSIFICATION_TYPE":"U","NORAD_CAT_ID":60355,"ELEMENT_SET_NO":999,"REV_AT_EPOCH":9066,"BSTAR":-0.00019412974,"MEAN_MOTION_DOT":-6.107e-5,"MEAN_MOTION_DDOT":0}]
